[{"OBJECT_NAME":"SAUDICOMSAT 6","OBJECT_ID":"2007-012E","EPOCH":"2026-03-09T21:15:43.629696","MEAN_MOTION":14.62432218,"ECCENTRICITY":0.00706343,"INCLINATION":98.399,"RA_OF_ASC_NODE":34.6274,"ARG_OF_PERICENTER":276.1767,"MEAN_ANOMALY":83.139,"EPHEMERIS_TYPE":0,"CLASSIFICATION_TYPE":"U","NORAD_CAT_ID":31121,"ELEMENT_SET_NO":999,"REV_AT_EPOCH":567,"BSTAR":0.00019628889,"MEAN_MOTION_DOT":9.75e-6,"MEAN_MOTION_DDOT":0},{"OBJECT_NAME":"THOR ABLESTAR DEB","OBJECT_ID":"1961-015AR","EPOCH":"2026-03-09T16:19:13.197504","MEAN_MOTION":14.51752768,"ECCENTRICITY":0.00422271,"INCLINATION":66.8769,"RA_OF_ASC_NODE":173.5958,"ARG_OF_PERICENTER":325.8342,"MEAN_ANOMALY":34.0052,"EPHEMERIS_TYPE":0,"CLASSIFICATION_TYPE":"U","NORAD_CAT_ID":155,"ELEMENT_SET_NO":999,"REV_AT_EPOCH":34666,"BSTAR":0.00082507067,"MEAN_MOTION_DOT":3.268e-5,"MEAN_MOTION_DDOT":0}]
